<?xml version="1.0" encoding="ISO-8859-1"?><cdm xmlns:ndm="urn:ccsds:recommendation:navigation:schema:ndmxml" xmlns:xsi="http://www.w3.org/2001/XMLSchema-instance" id="CCSDS_CDM_VERS" version="1.0" xsi:noNamespaceSchemaLocation="http://sanaregistry.org/r/ndmxml/ndmxml-1.0-master.xsd"><header><COMMENT>Secondary = Almanac; Radius = DISCOS</COMMENT><COMMENT>EVENT_ID:CA-24001A-90094A-202312021836</COMMENT><CREATION_DATE>2023-11-26T03:43:01.057</CREATION_DATE><ORIGINATOR>CAESAR</ORIGINATOR><MESSAGE_FOR>SAT_1</MESSAGE_FOR><MESSAGE_ID>ALM_GEO_16139234</MESSAGE_ID></header><body><relativeMetadataData><TCA>2023-12-02T18:37:14.807</TCA><MISS_DISTANCE units="m">4878.9476978616485</MISS_DISTANCE><RELATIVE_SPEED units="m/s">725.2582289396487</RELATIVE_SPEED><relativeStateVector><RELATIVE_POSITION_R units="m">687.1124896351758</RELATIVE_POSITION_R><RELATIVE_POSITION_T units="m">4796.211000625572</RELATIVE_POSITION_T><RELATIVE_POSITION_N units="m">573.0332473208595</RELATIVE_POSITION_N><RELATIVE_VELOCITY_R units="m/s">-0.5115698516340896</RELATIVE_VELOCITY_R><RELATIVE_VELOCITY_T units="m/s">-85.9255693958864</RELATIVE_VELOCITY_T><RELATIVE_VELOCITY_N units="m/s">720.1500076129663</RELATIVE_VELOCITY_N></relativeStateVector><START_SCREEN_PERIOD>2023-11-26T01:35:11.430</START_SCREEN_PERIOD><STOP_SCREEN_PERIOD>2023-12-10T01:35:11.430</STOP_SCREEN_PERIOD><SCREEN_VOLUME_FRAME>RTN</SCREEN_VOLUME_FRAME><SCREEN_VOLUME_SHAPE>ELLIPSOID</SCREEN_VOLUME_SHAPE><SCREEN_VOLUME_X units="m">50000.0</SCREEN_VOLUME_X><SCREEN_VOLUME_Y units="m">50000.0</SCREEN_VOLUME_Y><SCREEN_VOLUME_Z units="m">50000.0</SCREEN_VOLUME_Z><SCREEN_ENTRY_TIME>2023-12-02T18:36:06.194</SCREEN_ENTRY_TIME><SCREEN_EXIT_TIME>2023-12-02T18:38:23.420</SCREEN_EXIT_TIME></relativeMetadataData><segment><metadata><OBJECT>OBJECT1</OBJECT><OBJECT_DESIGNATOR>00001</OBJECT_DESIGNATOR><CATALOG_NAME>SATCAT</CATALOG_NAME><OBJECT_NAME>SAT_1</OBJECT_NAME><INTERNATIONAL_DESIGNATOR>2024-001A</INTERNATIONAL_DESIGNATOR><OBJECT_TYPE>UNKNOWN</OBJECT_TYPE><EPHEMERIS_NAME>2024-001A_SAT_1_OPER_20231124T150500_S20231124T150000_E20231227T120000.jspoc</EPHEMERIS_NAME><COVARIANCE_METHOD>CALCULATED</COVARIANCE_METHOD><MANEUVERABLE>YES</MANEUVERABLE><REF_FRAME>ITRF</REF_FRAME></metadata><data><odParameters/><additionalParameters><COMMENT>JAC_LAST_ACC_OB = N/A</COMMENT><AREA_PC units="m**2">1231.6299839133426</AREA_PC></additionalParameters><stateVector><X units="km">41841.221470711214</X><Y units="km">-5327.605977859087</Y><Z units="km">-18.515144421167612</Z><X_DOT units="km/s">0.0017040043055517912</X_DOT><Y_DOT units="km/s">-0.002318265600558334</Y_DOT><Z_DOT units="km/s">0.003993011256159749</Z_DOT></stateVector><covarianceMatrix><CR_R units="m**2">1317.689999999999</CR_R><CT_R units="m**2">-2.3837598561726736E-12</CT_R><CT_T units="m**2">227528.45606801618</CT_T><CN_R units="m**2">2.4868995751603507E-14</CN_R><CN_T units="m**2">-6.394884621840902E-14</CN_T><CN_N units="m**2">45329.99657034717</CN_N><CRDOT_R units="m**2/s">-3.7486290113686316E-17</CRDOT_R><CRDOT_T units="m**2/s">-16.580405095456737</CRDOT_T><CRDOT_N units="m**2/s">-3.469446951953614E-18</CRDOT_N><CRDOT_RDOT units="m**2/s**2">0.0012082437418169253</CRDOT_RDOT><CTDOT_R units="m**2/s">0.09602242448171584</CTDOT_R><CTDOT_T units="m**2/s">-1.7104922191662461E-15</CTDOT_T><CTDOT_N units="m**2/s">1.145188544687814E-18</CTDOT_N><CTDOT_RDOT units="m**2/s**2">6.2597371068742E-20</CTDOT_RDOT><CTDOT_TDOT units="m**2/s**2">6.997325625410165E-6</CTDOT_TDOT><CNDOT_R units="m**2/s">-4.1350801665234724E-19</CNDOT_R><CNDOT_T units="m**2/s">-1.3072940909018295E-19</CNDOT_T><CNDOT_N units="m**2/s">-1.705213768016957E-21</CNDOT_N><CNDOT_RDOT units="m**2/s**2">1.0095428667867478E-22</CNDOT_RDOT><CNDOT_TDOT units="m**2/s**2">3.191582222642862E-23</CNDOT_TDOT><CNDOT_NDOT units="m**2/s**2">2.722037589142637E-27</CNDOT_NDOT><CDRG_R units="m**3/kg">0.0</CDRG_R><CDRG_T units="m**3/kg">0.0</CDRG_T><CDRG_N units="m**3/kg">0.0</CDRG_N><CDRG_RDOT units="m**3/(kg*s)">0.0</CDRG_RDOT><CDRG_TDOT units="m**3/(kg*s)">0.0</CDRG_TDOT><CDRG_NDOT units="m**3/(kg*s)">0.0</CDRG_NDOT><CDRG_DRG units="m**4/kg**2">0.0</CDRG_DRG><CSRP_R units="m**3/kg">0.0</CSRP_R><CSRP_T units="m**3/kg">0.0</CSRP_T><CSRP_N units="m**3/kg">0.0</CSRP_N><CSRP_RDOT units="m**3/(kg*s)">0.0</CSRP_RDOT><CSRP_TDOT units="m**3/(kg*s)">0.0</CSRP_TDOT><CSRP_NDOT units="m**3/(kg*s)">0.0</CSRP_NDOT><CSRP_DRG units="m**4/kg**2">0.0</CSRP_DRG><CSRP_SRP units="m**4/kg**2">0.0</CSRP_SRP></covarianceMatrix></data></segment><segment><metadata><OBJECT>OBJECT2</OBJECT><OBJECT_DESIGNATOR>20923</OBJECT_DESIGNATOR><CATALOG_NAME>SATCAT</CATALOG_NAME><OBJECT_NAME>GORIZONT 21</OBJECT_NAME><INTERNATIONAL_DESIGNATOR>1990-094A</INTERNATIONAL_DESIGNATOR><OBJECT_TYPE>UNKNOWN</OBJECT_TYPE><EPHEMERIS_NAME>almLe20231125_104640Au20231125_070111</EPHEMERIS_NAME><COVARIANCE_METHOD>CALCULATED</COVARIANCE_METHOD><MANEUVERABLE>NO</MANEUVERABLE><REF_FRAME>ITRF</REF_FRAME><GRAVITY_MODEL>EIGEN GL04S: 24D 24O</GRAVITY_MODEL><ATMOSPHERIC_MODEL>NONE</ATMOSPHERIC_MODEL><N_BODY_PERTURBATIONS>MOON,SUN</N_BODY_PERTURBATIONS><SOLAR_RAD_PRESSURE>YES</SOLAR_RAD_PRESSURE><EARTH_TIDES>NO</EARTH_TIDES></metadata><data><odParameters><TIME_LASTOB_START>2023-11-25T07:01:11.472</TIME_LASTOB_START><TIME_LASTOB_END>2023-11-25T07:01:11.472</TIME_LASTOB_END><RECOMMENDED_OD_SPAN units="d">14.0</RECOMMENDED_OD_SPAN><ACTUAL_OD_SPAN units="d">12.409791342592593</ACTUAL_OD_SPAN><OBS_AVAILABLE>260</OBS_AVAILABLE><OBS_USED>260</OBS_USED><TRACKS_AVAILABLE>25</TRACKS_AVAILABLE><TRACKS_USED>25</TRACKS_USED><RESIDUALS_ACCEPTED units="%">100.0</RESIDUALS_ACCEPTED><WEIGHTED_RMS>0.7320297271032419</WEIGHTED_RMS></odParameters><additionalParameters><COMMENT>JAC_LAST_ACC_OB = Greater Than (&gt;) 48 Hours</COMMENT><AREA_PC units="m**2">101.93376457451753</AREA_PC><CR_AREA_OVER_MASS units="m**2/kg">0.003213768631011915</CR_AREA_OVER_MASS></additionalParameters><stateVector><X units="km">41842.50904379858</X><Y units="km">-5322.935744189328</Y><Z units="km">-17.936176673376213</Z><X_DOT units="km/s">-0.009461226071478503</X_DOT><Y_DOT units="km/s">-0.08845989162024762</Y_DOT><Z_DOT units="km/s">0.724031051643916</Z_DOT></stateVector><covarianceMatrix><CR_R units="m**2">13231.142676661355</CR_R><CT_R units="m**2">13474.775480049491</CT_R><CT_T units="m**2">30195.044087843024</CT_T><CN_R units="m**2">225.32652344079227</CN_R><CN_T units="m**2">249.1671321437588</CN_T><CN_N units="m**2">720.6760894748143</CN_N><CRDOT_R units="m**2/s">-1.077382688871761</CRDOT_R><CRDOT_T units="m**2/s">-2.1576352352870503</CRDOT_T><CRDOT_N units="m**2/s">-0.023026987855600367</CRDOT_N><CRDOT_RDOT units="m**2/s**2">1.5752226191478115E-4</CRDOT_RDOT><CTDOT_R units="m**2/s">-0.9705458633656224</CTDOT_R><CTDOT_T units="m**2/s">-0.9915593992639855</CTDOT_T><CTDOT_N units="m**2/s">-0.016663464353446816</CTDOT_N><CTDOT_RDOT units="m**2/s**2">7.92535779610398E-5</CTDOT_RDOT><CTDOT_TDOT units="m**2/s**2">7.119396837998039E-5</CTDOT_TDOT><CNDOT_R units="m**2/s">-0.013898464809461088</CNDOT_R><CNDOT_T units="m**2/s">-0.033407747127373065</CNDOT_T><CNDOT_N units="m**2/s">-0.0343685673881563</CNDOT_N><CNDOT_RDOT units="m**2/s**2">2.1746129968047953E-6</CNDOT_RDOT><CNDOT_TDOT units="m**2/s**2">1.0218444588645022E-6</CNDOT_TDOT><CNDOT_NDOT units="m**2/s**2">5.143690767196241E-6</CNDOT_NDOT><CDRG_R units="m**3/kg">0.0</CDRG_R><CDRG_T units="m**3/kg">0.0</CDRG_T><CDRG_N units="m**3/kg">0.0</CDRG_N><CDRG_RDOT units="m**3/(kg*s)">0.0</CDRG_RDOT><CDRG_TDOT units="m**3/(kg*s)">0.0</CDRG_TDOT><CDRG_NDOT units="m**3/(kg*s)">0.0</CDRG_NDOT><CDRG_DRG units="m**4/kg**2">0.0</CDRG_DRG><CSRP_R units="m**3/kg">0.0</CSRP_R><CSRP_T units="m**3/kg">0.0</CSRP_T><CSRP_N units="m**3/kg">0.0</CSRP_N><CSRP_RDOT units="m**3/(kg*s)">0.0</CSRP_RDOT><CSRP_TDOT units="m**3/(kg*s)">0.0</CSRP_TDOT><CSRP_NDOT units="m**3/(kg*s)">0.0</CSRP_NDOT><CSRP_DRG units="m**4/kg**2">0.0</CSRP_DRG><CSRP_SRP units="m**4/kg**2">0.0</CSRP_SRP></covarianceMatrix></data></segment></body></cdm>